[Satellite]
VERSION=1.1
NAME=SL-14 R/B
NICKNAME=SL-14 R/B
TLE1=1 11672U 80005B   18020.93904233  .00000081  00000-0  61324-5 0  9994
TLE2=2 11672  82.5137 233.8383 0015705 318.3925  41.6096 14.87904754 34668
